CCSDS_OMM_VERS = 2.0
CREATION_DATE  = 
ORIGINATOR     = 

OBJECT_NAME    = STARLINK-36397
OBJECT_ID      = 2026-014G
CENTER_NAME    = EARTH
REF_FRAME      = TEME
TIME_SYSTEM    = UTC
MEAN_ELEMENT_THEORY = SGP/SGP4

EPOCH          = 2026-02-17T03:21:14.222880
MEAN_MOTION    = 15.75303504
ECCENTRICITY   = .0001812
INCLINATION    = 97.2835
RA_OF_ASC_NODE = 291.9858
ARG_OF_PERICENTER = 128.8315
MEAN_ANOMALY   = 231.3113

EPHEMERIS_TYPE = 0
CLASSIFICATION_TYPE = U
NORAD_CAT_ID   = 67538
ELEMENT_SET_NO = 999
REV_AT_EPOCH   = 533
BSTAR          = .2184E-2
MEAN_MOTION_DOT = .340628E-2
MEAN_MOTION_DDOT = 0

CCSDS_OMM_VERS = 2.0
CREATION_DATE  = 
ORIGINATOR     = 

OBJECT_NAME    = STARLINK-36573
OBJECT_ID      = 2026-014H
CENTER_NAME    = EARTH
REF_FRAME      = TEME
TIME_SYSTEM    = UTC
MEAN_ELEMENT_THEORY = SGP/SGP4

EPOCH          = 2026-02-15T13:50:55.703040
MEAN_MOTION    = 15.80907014
ECCENTRICITY   = .000223
INCLINATION    = 97.2830
RA_OF_ASC_NODE = 290.4370
ARG_OF_PERICENTER = 167.0199
MEAN_ANOMALY   = 193.1127

EPHEMERIS_TYPE = 0
CLASSIFICATION_TYPE = U
NORAD_CAT_ID   = 67539
ELEMENT_SET_NO = 999
REV_AT_EPOCH   = 509
BSTAR          = .25211E-2
MEAN_MOTION_DOT = .514482E-2
MEAN_MOTION_DDOT = 0

CCSDS_OMM_VERS = 2.0
CREATION_DATE  = 
ORIGINATOR     = 

OBJECT_NAME    = STARLINK-36585
OBJECT_ID      = 2026-014J
CENTER_NAME    = EARTH
REF_FRAME      = TEME
TIME_SYSTEM    = UTC
MEAN_ELEMENT_THEORY = SGP/SGP4

EPOCH          = 2026-02-17T03:09:33.268320
MEAN_MOTION    = 15.75336074
ECCENTRICITY   = .0002119
INCLINATION    = 97.2836
RA_OF_ASC_NODE = 291.9931
ARG_OF_PERICENTER = 56.5051
MEAN_ANOMALY   = 303.6417

EPHEMERIS_TYPE = 0
CLASSIFICATION_TYPE = U
NORAD_CAT_ID   = 67540
ELEMENT_SET_NO = 999
REV_AT_EPOCH   = 533
BSTAR          = .22768E-2
MEAN_MOTION_DOT = .35627E-2
MEAN_MOTION_DDOT = 0

CCSDS_OMM_VERS = 2.0
CREATION_DATE  = 
ORIGINATOR     = 

OBJECT_NAME    = STARLINK-36579
OBJECT_ID      = 2026-014K
CENTER_NAME    = EARTH
REF_FRAME      = TEME
TIME_SYSTEM    = UTC
MEAN_ELEMENT_THEORY = SGP/SGP4

EPOCH          = 2026-02-17T04:29:50.764704
MEAN_MOTION    = 15.75193263
ECCENTRICITY   = .0001911
INCLINATION    = 97.2834
RA_OF_ASC_NODE = 292.0742
ARG_OF_PERICENTER = 106.6989
MEAN_ANOMALY   = 253.4486

EPHEMERIS_TYPE = 0
CLASSIFICATION_TYPE = U
NORAD_CAT_ID   = 67541
ELEMENT_SET_NO = 999
REV_AT_EPOCH   = 534
BSTAR          = .17874E-2
MEAN_MOTION_DOT = .275286E-2
MEAN_MOTION_DDOT = 0

CCSDS_OMM_VERS = 2.0
CREATION_DATE  = 
ORIGINATOR     = 

OBJECT_NAME    = STARLINK-35934
OBJECT_ID      = 2026-014L
CENTER_NAME    = EARTH
REF_FRAME      = TEME
TIME_SYSTEM    = UTC
MEAN_ELEMENT_THEORY = SGP/SGP4

EPOCH          = 2026-02-17T03:44:31.341120
MEAN_MOTION    = 15.80940637
ECCENTRICITY   = .0003728
INCLINATION    = 97.2842
RA_OF_ASC_NODE = 292.1176
ARG_OF_PERICENTER = 52.7952
MEAN_ANOMALY   = 307.3656

EPHEMERIS_TYPE = 0
CLASSIFICATION_TYPE = U
NORAD_CAT_ID   = 67542
ELEMENT_SET_NO = 999
REV_AT_EPOCH   = 533
BSTAR          = .2124E-2
MEAN_MOTION_DOT = .429865E-2
MEAN_MOTION_DDOT = 0

CCSDS_OMM_VERS = 2.0
CREATION_DATE  = 
ORIGINATOR     = 

OBJECT_NAME    = STARLINK-36581
OBJECT_ID      = 2026-014M
CENTER_NAME    = EARTH
REF_FRAME      = TEME
TIME_SYSTEM    = UTC
MEAN_ELEMENT_THEORY = SGP/SGP4

EPOCH          = 2026-02-17T04:00:00.999936
MEAN_MOTION    = 15.75175751
ECCENTRICITY   = .0001514
INCLINATION    = 97.2848
RA_OF_ASC_NODE = 292.1137
ARG_OF_PERICENTER = 100.3472
MEAN_ANOMALY   = 290.3724

EPHEMERIS_TYPE = 0
CLASSIFICATION_TYPE = U
NORAD_CAT_ID   = 67543
ELEMENT_SET_NO = 999
REV_AT_EPOCH   = 539
BSTAR          = .26217E-3
MEAN_MOTION_DOT = .3913E-3
MEAN_MOTION_DDOT = 0

CCSDS_OMM_VERS = 2.0
CREATION_DATE  = 
ORIGINATOR     = 

OBJECT_NAME    = STARLINK-36565
OBJECT_ID      = 2026-014N
CENTER_NAME    = EARTH
REF_FRAME      = TEME
TIME_SYSTEM    = UTC
MEAN_ELEMENT_THEORY = SGP/SGP4

EPOCH          = 2026-02-17T04:00:53.456832
MEAN_MOTION    = 15.75331595
ECCENTRICITY   = .000221
INCLINATION    = 97.2848
RA_OF_ASC_NODE = 292.1013
ARG_OF_PERICENTER = 359.8531
MEAN_ANOMALY   = 0.2733

EPHEMERIS_TYPE = 0
CLASSIFICATION_TYPE = U
NORAD_CAT_ID   = 67544
ELEMENT_SET_NO = 999
REV_AT_EPOCH   = 534
BSTAR          = .22309E-2
MEAN_MOTION_DOT = .348707E-2
MEAN_MOTION_DDOT = 0

CCSDS_OMM_VERS = 2.0
CREATION_DATE  = 
ORIGINATOR     = 

OBJECT_NAME    = STARLINK-36583
OBJECT_ID      = 2026-014P
CENTER_NAME    = EARTH
REF_FRAME      = TEME
TIME_SYSTEM    = UTC
MEAN_ELEMENT_THEORY = SGP/SGP4

EPOCH          = 2026-02-16T14:52:05.670912
MEAN_MOTION    = 15.75347416
ECCENTRICITY   = .0000964
INCLINATION    = 97.2841
RA_OF_ASC_NODE = 291.4663
ARG_OF_PERICENTER = 104.4565
MEAN_ANOMALY   = 255.6807

EPHEMERIS_TYPE = 0
CLASSIFICATION_TYPE = U
NORAD_CAT_ID   = 67545
ELEMENT_SET_NO = 999
REV_AT_EPOCH   = 525
BSTAR          = .15854E-2
MEAN_MOTION_DOT = .244912E-2
MEAN_MOTION_DDOT = 0

CCSDS_OMM_VERS = 2.0
CREATION_DATE  = 
ORIGINATOR     = 

OBJECT_NAME    = STARLINK-36580
OBJECT_ID      = 2026-014Q
CENTER_NAME    = EARTH
REF_FRAME      = TEME
TIME_SYSTEM    = UTC
MEAN_ELEMENT_THEORY = SGP/SGP4

EPOCH          = 2026-02-17T04:09:31.112928
MEAN_MOTION    = 15.75200088
ECCENTRICITY   = .0001737
INCLINATION    = 97.2847
RA_OF_ASC_NODE = 292.0917
ARG_OF_PERICENTER = 113.6041
MEAN_ANOMALY   = 246.5407

EPHEMERIS_TYPE = 0
CLASSIFICATION_TYPE = U
NORAD_CAT_ID   = 67546
ELEMENT_SET_NO = 999
REV_AT_EPOCH   = 534
BSTAR          = .71074E-3
MEAN_MOTION_DOT = .107272E-2
MEAN_MOTION_DDOT = 0

CCSDS_OMM_VERS = 2.0
CREATION_DATE  = 
ORIGINATOR     = 

OBJECT_NAME    = STARLINK-36584
OBJECT_ID      = 2026-014R
CENTER_NAME    = EARTH
REF_FRAME      = TEME
TIME_SYSTEM    = UTC
MEAN_ELEMENT_THEORY = SGP/SGP4

EPOCH          = 2026-02-17T04:00:00.999936
MEAN_MOTION    = 15.75174044
ECCENTRICITY   = .0001441
INCLINATION    = 97.2852
RA_OF_ASC_NODE = 292.1253
ARG_OF_PERICENTER = 106.2286
MEAN_ANOMALY   = 316.4866

EPHEMERIS_TYPE = 0
CLASSIFICATION_TYPE = U
NORAD_CAT_ID   = 67547
ELEMENT_SET_NO = 999
REV_AT_EPOCH   = 539
BSTAR          = .30036E-3
MEAN_MOTION_DOT = .44876E-3
MEAN_MOTION_DDOT = 0

CCSDS_OMM_VERS = 2.0
CREATION_DATE  = 
ORIGINATOR     = 

OBJECT_NAME    = STARLINK-36586
OBJECT_ID      = 2026-014S
CENTER_NAME    = EARTH
REF_FRAME      = TEME
TIME_SYSTEM    = UTC
MEAN_ELEMENT_THEORY = SGP/SGP4

EPOCH          = 2026-02-17T03:34:23.208672
MEAN_MOTION    = 15.80997965
ECCENTRICITY   = .0002102
INCLINATION    = 97.2832
RA_OF_ASC_NODE = 292.1271
ARG_OF_PERICENTER = 147.3543
MEAN_ANOMALY   = 212.7855

EPHEMERIS_TYPE = 0
CLASSIFICATION_TYPE = U
NORAD_CAT_ID   = 67548
ELEMENT_SET_NO = 999
REV_AT_EPOCH   = 534
BSTAR          = .20488E-2
MEAN_MOTION_DOT = .41499E-2
MEAN_MOTION_DDOT = 0

CCSDS_OMM_VERS = 2.0
CREATION_DATE  = 
ORIGINATOR     = 

OBJECT_NAME    = STARLINK-36564
OBJECT_ID      = 2026-014T
CENTER_NAME    = EARTH
REF_FRAME      = TEME
TIME_SYSTEM    = UTC
MEAN_ELEMENT_THEORY = SGP/SGP4

EPOCH          = 2026-02-17T04:21:12.328416
MEAN_MOTION    = 15.75221794
ECCENTRICITY   = .0001803
INCLINATION    = 97.2842
RA_OF_ASC_NODE = 292.0818
ARG_OF_PERICENTER = 92.8705
MEAN_ANOMALY   = 267.2767

EPHEMERIS_TYPE = 0
CLASSIFICATION_TYPE = U
NORAD_CAT_ID   = 67549
ELEMENT_SET_NO = 999
REV_AT_EPOCH   = 528
BSTAR          = .12687E-2
MEAN_MOTION_DOT = .193725E-2
MEAN_MOTION_DDOT = 0

CCSDS_OMM_VERS = 2.0
CREATION_DATE  = 
ORIGINATOR     = 

OBJECT_NAME    = STARLINK-36563
OBJECT_ID      = 2026-014U
CENTER_NAME    = EARTH
REF_FRAME      = TEME
TIME_SYSTEM    = UTC
MEAN_ELEMENT_THEORY = SGP/SGP4

EPOCH          = 2026-02-17T04:15:06.305184
MEAN_MOTION    = 15.75253039
ECCENTRICITY   = .0003825
INCLINATION    = 97.2835
RA_OF_ASC_NODE = 292.0854
ARG_OF_PERICENTER = 151.2027
MEAN_ANOMALY   = 208.9450

EPHEMERIS_TYPE = 0
CLASSIFICATION_TYPE = U
NORAD_CAT_ID   = 67550
ELEMENT_SET_NO = 999
REV_AT_EPOCH   = 534
BSTAR          = .21954E-2
MEAN_MOTION_DOT = .341756E-2
MEAN_MOTION_DDOT = 0

CCSDS_OMM_VERS = 2.0
CREATION_DATE  = 
ORIGINATOR     = 

OBJECT_NAME    = STARLINK-36566
OBJECT_ID      = 2026-014V
CENTER_NAME    = EARTH
REF_FRAME      = TEME
TIME_SYSTEM    = UTC
MEAN_ELEMENT_THEORY = SGP/SGP4

EPOCH          = 2026-02-17T04:12:03.634848
MEAN_MOTION    = 15.75182873
ECCENTRICITY   = .0001837
INCLINATION    = 97.2848
RA_OF_ASC_NODE = 292.0882
ARG_OF_PERICENTER = 73.3735
MEAN_ANOMALY   = 286.7732

EPHEMERIS_TYPE = 0
CLASSIFICATION_TYPE = U
NORAD_CAT_ID   = 67551
ELEMENT_SET_NO = 999
REV_AT_EPOCH   = 533
BSTAR          = .87161E-3
MEAN_MOTION_DOT = .131865E-2
MEAN_MOTION_DDOT = 0

CCSDS_OMM_VERS = 2.0
CREATION_DATE  = 
ORIGINATOR     = 

OBJECT_NAME    = STARLINK-36567
OBJECT_ID      = 2026-014W
CENTER_NAME    = EARTH
REF_FRAME      = TEME
TIME_SYSTEM    = UTC
MEAN_ELEMENT_THEORY = SGP/SGP4

EPOCH          = 2026-02-17T04:24:15.227712
MEAN_MOTION    = 15.75279791
ECCENTRICITY   = .0002237
INCLINATION    = 97.2847
RA_OF_ASC_NODE = 292.0744
ARG_OF_PERICENTER = 136.3258
MEAN_ANOMALY   = 223.8185

EPHEMERIS_TYPE = 0
CLASSIFICATION_TYPE = U
NORAD_CAT_ID   = 67552
ELEMENT_SET_NO = 999
REV_AT_EPOCH   = 533
BSTAR          = .19048E-2
MEAN_MOTION_DOT = .295176E-2
MEAN_MOTION_DDOT = 0

